#aV2006  7 27  0  0   .00000000      96 DD+AD WGS84 FIT  NGA
## 1385 345600.00000000   900.00000000 53943  .0000000000000
+   29     1  2  3  4  5  6  7  8  9 10 11 13 14 15 16 17 18
+         19 20 21 22 23 24 25 26 27 28 29 30  0  0  0  0  0
+          0  0  0  0  0  0  0  0  0  0  0  0  0  0  0  0  0
+          0  0  0  0  0  0  0  0  0  0  0  0  0  0  0  0  0
+          0  0  0  0  0  0  0  0  0  0  0  0  0  0  0  0  0
++         0  0  0  0  0  0  0  0  0  0  0  0  0  0  0  0  0
++         0  0  0  0  0  0  0  0  0  0  0  0  0  0  0  0  0
++         0  0  0  0  0  0  0  0  0  0  0  0  0  0  0  0  0
++         0  0  0  0  0  0  0  0  0  0  0  0  0  0  0  0  0
++         0  0  0  0  0  0  0  0  0  0  0  0  0  0  0  0  0
%c cc cc ccc ccc cccc cccc cccc cccc ccccc ccccc ccccc ccccc
%c cc cc ccc ccc cccc cccc cccc cccc ccccc ccccc ccccc ccccc
%f  0.0000000  0.000000000  0.00000000000  0.000000000000000
%f  0.0000000  0.000000000  0.00000000000  0.000000000000000
%i    0    0    0    0      0      0      0      0         0
%i    0    0    0    0      0      0      0      0         0
/*      NGA, ST. LOUIS,MO.                                  
/*   EPHEMERIS COMPUTED FROM  3 DAYS OF DATA                
/* CCCCCCCCCCCCCCCCCCCCCCCCCCCCCCCCCCCCCCCCCCCCCCCCCCCCCCCCC
/* CCCCCCCCCCCCCCCCCCCCCCCCCCCCCCCCCCCCCCCCCCCCCCCCCCCCCCCCC
*  2006  7 27  9  0   .00000000                                                 
P  1 -15589.465902  21334.209375  -2182.305377     67.629045                    
V  1    -38.860580  -3611.350725 -32226.913178       .021075                    
P  2  14440.902354 -12720.204116  17962.709610     17.857887                    
V  2  23406.999523   2157.990332 -17274.270472       .038754                    
P  3 -10633.269872  24136.919852   -988.518139    201.927782                    
V  3  -4246.174019   -824.766123  31127.049349      -.185036                    
P  4  24194.932552  -6127.005484   9538.423570    282.471364                    
V  4  11993.661058   2959.975186 -28061.529537       .071337                    
P  5 -11975.760706 -23441.195662  -4367.267205    256.167048                    
V  5   5676.341339   2541.666568 -30498.578604       .286314                    
P  6 -13359.138537  -8676.363041  21448.654681    593.949876                    
V  6  13108.582917 -23475.277757  -1411.496521       .045302                    
P  7 -18425.196927  13981.315351  13499.532892    539.345737                    
V  7   5249.168153 -15975.847316  24220.177528      -.017156                    
P  8  26716.600715     38.783750  -2086.491618    -73.788409                    
V  8   2325.896293   2162.670432  31628.987587      -.011206                    
P  9  -7193.152995 -14796.911576 -21464.209096     29.572641                    
V  9  25880.058029  -1158.627230  -7822.630403       .013790                    
P 10   2947.555624 -19634.189206  17390.735511     87.214228                    
V 10  11986.872880  18952.316680  19556.064593       .005539                    
P 11  10428.193351  14513.359096 -19775.093230    341.609444                    
V 11 -24764.795691   4807.629596  -9305.627258       .021611                    
P 13  12216.061749   7778.124550  22171.312500     80.565774                    
V 13 -15072.479323  23943.338924    -48.357158       .030922                    
P 14 -18588.189880  10442.888727 -15732.906750     -8.967174                    
V 14   9219.796809 -17887.610196 -22730.583638       .008591                    
P 15 -26648.722600   -281.398427  -2890.729003    652.107351                    
V 15  -3217.051272  -2866.794265  31095.515418       .069157                    
P 16  -6788.564933  16349.547770  19849.047277     59.818361                    
V 16 -13084.999521 -21392.691019  13315.916804       .029615                    
P 17  18800.061770  -9430.905775 -16162.638927     99.890620                    
V 17  -8829.160546  18672.284874 -21267.101679      -.005679                    
P 18 -17968.015311 -14037.305622 -13776.036909   -244.427671                    
V 18  -6075.238126 -16603.591409  24332.471111      -.012060                    
P 19  -5347.485309  22966.736659 -12051.146731      3.365279                    
V 19 -10784.009571  11418.674537  26364.756901       .026182                    
P 20  13486.836314  22892.323542    417.814920    -23.798711                    
V 20  -2213.143905   2009.655878 -31649.322323       .003826                    
P 21 -25581.113194  -5617.317543   5988.326055     44.030349                    
V 21   7542.024308  -2428.487817  29777.731687       .021706                    
P 22 -16361.944147     84.504393 -20771.580982    120.092124                    
V 22 -11138.749372 -24329.404262   8590.736513       .032847                    
P 23   4326.885823  18076.016058  18808.967077    138.059769                    
V 23 -13511.209586  20037.302039 -16237.467114      -.002233                    
P 24  26615.179841    -68.532563   2516.864674     23.825604                    
V 24   2717.456265   2781.295541 -31327.956804       .029017                    
P 25 -19527.479039  11674.836123  14218.853509    223.182324                    
V 25 -17454.636705   -671.493974 -23958.002839       .740513                    
P 26   6108.730139 -23240.030767 -11037.352149   -194.174735                    
V 26   8900.873350 -10432.595816  28465.079557      -.134595                    
P 27  24829.428666   5135.704945   9038.043350     59.928847                    
V 27 -10422.660306   2743.217056  28731.600108       .017815                    
P 28  17587.156823   4346.060011 -19247.059417     22.255961                    
V 28  10750.358163  22554.846788  14354.922516      -.006445                    
P 29   8602.827729 -23902.940611  -6988.545871    631.434856                    
V 29   6515.641396  -6883.457752  30843.115594       .019170                    
P 30 -17838.914014 -17816.738670   8256.775754      4.930600                    
V 30  -3068.429534 -10852.977988 -28921.010683       .011070                    
EOF
